{"type": "FeatureCollection", "features": [ {"type": "Feature", "properties": {"norad_id": 37084, "name": "COSMOS 2251 DEB", "group": "cosmos-2251-debris", "lat": -65.60087935234674, "lon": 123.14025023280658, "alt_km": 523.1782946575249, "timestamp": "2025-12-12T07:43:20.913362+00:00", "meta": {"OBJECT_NAME": "COSMOS 2251 DEB", "OBJECT_ID": "1993-036BFE", "EPOCH": "2025-12-08T19:15:18.077184", "MEAN_MOTION": 15.00891112, "ECCENTRICITY": 0.00979748, "INCLINATION": 74.0259, "RA_OF_ASC_NODE": 169.4673, "ARG_OF_PERICENTER": 250.8811, "MEAN_ANOMALY": 108.175, "EPHEMERIS_TYPE": 0, "CLASSIFICATION_TYPE": "U", "NORAD_CAT_ID": 37084, "ELEMENT_SET_NO": 999, "REV_AT_EPOCH": 66208, "BSTAR": 0.00080064992, "MEAN_MOTION_DOT": 0.00011267, "MEAN_MOTION_DDOT": 0}, "tle": {"line1": "1 37084U 93036BFE 25342.80229256  .00011267  00000+0  80065-3 0  9991", "line2": "2 37084  74.0259 169.4673 0097974 250.8811 108.1750 15.00891112662080"}}, "geometry": {"type": "Point", "coordinates": [123.14025023280658, -65.60087935234674]}}, {"type": "Feature", "properties": {"norad_id": 37085, "name": "COSMOS 2251 DEB", "group": "cosmos-2251-debris", "lat": -73.93306914633779, "lon": 128.6322359993283, "alt_km": 461.7695275412143, "timestamp": "2025-12-12T07:43:20.913373+00:00", "meta": {"OBJECT_NAME": "COSMOS 2251 DEB", "OBJECT_ID": "1993-036BFF", "EPOCH": "2025-12-02T23:36:37.668384", "MEAN_MOTION": 15.39020756, "ECCENTRICITY": 0.0022856, "INCLINATION": 73.9503, "RA_OF_ASC_NODE": 237.2473, "ARG_OF_PERICENTER": 76.375, "MEAN_ANOMALY": 284, "EPHEMERIS_TYPE": 0, "CLASSIFICATION_TYPE": "U", "NORAD_CAT_ID": 37085, "ELEMENT_SET_NO": 999, "REV_AT_EPOCH": 66987, "BSTAR": 0.0028642077, "MEAN_MOTION_DOT": 0.00113322, "MEAN_MOTION_DDOT": 0}, "tle": {"line1": "1 37085U 93036BFF 25336.98376931  .00113322  00000+0  28642-2 0  9994", "line2": "2 37085  73.9503 237.2473 0022856  76.3750 284.0000 15.39020756669879"}}, "geometry": {"type": "Point", "coordinates": [128.6322359993283, -73.93306914633779]}}, {"type": "Feature", "properties": {"norad_id": 37089, "name": "COSMOS 2251 DEB", "group": "cosmos-2251-debris", "lat": -7.957441769360461, "lon": -31.171137561880524, "alt_km": 668.66707338787, "timestamp": "2025-12-12T07:43:20.913383+00:00", "meta": {"OBJECT_NAME": "COSMOS 2251 DEB", "OBJECT_ID": "1993-036BFK", "EPOCH": "2025-12-09T17:42:06.763392", "MEAN_MOTION": 14.52845175, "ECCENTRICITY": 0.01352804, "INCLINATION": 74.0366, "RA_OF_ASC_NODE": 151.4105, "ARG_OF_PERICENTER": 252.1975, "MEAN_ANOMALY": 106.439, "EPHEMERIS_TYPE": 0, "CLASSIFICATION_TYPE": "U", "NORAD_CAT_ID": 37089, "ELEMENT_SET_NO": 999, "REV_AT_EPOCH": 66066, "BSTAR": 0.0037030969, "MEAN_MOTION_DOT": 0.00017193, "MEAN_MOTION_DDOT": 0}, "tle": {"line1": "1 37089U 93036BFK 25343.73757828  .00017193  00000+0  37031-2 0  9998", "line2": "2 37089  74.0366 151.4105 0135280 252.1975 106.4390 14.52845175660661"}}, "geometry": {"type": "Point", "coordinates": [-31.171137561880524, -7.957441769360461]}}, {"type": "Feature", "properties": {"norad_id": 37094, "name": "COSMOS 2251 DEB", "group": "cosmos-2251-debris", "lat": -22.187608125350803, "lon": 115.2572907461603, "alt_km": 791.7894262838736, "timestamp": "2025-12-12T07:43:20.913394+00:00", "meta": {"OBJECT_NAME": "COSMOS 2251 DEB", "OBJECT_ID": "1993-036BFQ", "EPOCH": "2025-12-10T15:45:11.030688", "MEAN_MOTION": 14.37808892, "ECCENTRICITY": 0.0084108, "INCLINATION": 74.1091, "RA_OF_ASC_NODE": 124.9809, "ARG_OF_PERICENTER": 91.4784, "MEAN_ANOMALY": 269.6007, "EPHEMERIS_TYPE": 0, "CLASSIFICATION_TYPE": "U", "NORAD_CAT_ID": 37094, "ELEMENT_SET_NO": 999, "REV_AT_EPOCH": 84476, "BSTAR": 0.0015212, "MEAN_MOTION_DOT": 4.753e-05, "MEAN_MOTION_DDOT": 0}, "tle": {"line1": "1 37094U 93036BFQ 25344.65637767  .00004753  00000+0  15212-2 0  9990", "line2": "2 37094  74.1091 124.9809 0084108  91.4784 269.6007 14.37808892844763"}}, "geometry": {"type": "Point", "coordinates": [115.2572907461603, -22.187608125350803]}}, {"type": "Feature", "properties": {"norad_id": 37095, "name": "COSMOS 2251 DEB", "group": "cosmos-2251-debris", "lat": -37.702025802145144, "lon": 177.70418803856592, "alt_km": 842.0050732420541, "timestamp": "2025-12-12T07:43:20.913404+00:00", "meta": {"OBJECT_NAME": "COSMOS 2251 DEB", "OBJECT_ID": "1993-036BFR", "EPOCH": "2025-12-09T20:01:56.039232", "MEAN_MOTION": 14.03378058, "ECCENTRICITY": 0.01946745, "INCLINATION": 73.8479, "RA_OF_ASC_NODE": 195.0272, "ARG_OF_PERICENTER": 253.3329, "MEAN_ANOMALY": 104.6357, "EPHEMERIS_TYPE": 0, "CLASSIFICATION_TYPE": "U", "NORAD_CAT_ID": 37095, "ELEMENT_SET_NO": 999, "REV_AT_EPOCH": 62595, "BSTAR": 0.002528344, "MEAN_MOTION_DOT": 4.65e-05, "MEAN_MOTION_DDOT": 0}, "tle": {"line1": "1 37095U 93036BFR 25343.83467638  .00004650  00000+0  25283-2 0  9993", "line2": "2 37095  73.8479 195.0272 0194674 253.3329 104.6357 14.03378058625950"}}, "geometry": {"type": "Point", "coordinates": [177.70418803856592, -37.702025802145144]}}, {"type": "Feature", "properties": {"norad_id": 37108, "name": "COSMOS 2251 DEB", "group": "cosmos-2251-debris", "lat": -52.18078877487955, "lon": 59.70885839513825, "alt_km": 815.1387472350298, "timestamp": "2025-12-12T07:43:20.913414+00:00", "meta": {"OBJECT_NAME": "COSMOS 2251 DEB", "OBJECT_ID": "1993-036BGE", "EPOCH": "2025-12-11T16:59:24.426240", "MEAN_MOTION": 14.41286837, "ECCENTRICITY": 0.00914064, "INCLINATION": 74.0445, "RA_OF_ASC_NODE": 82.4721, "ARG_OF_PERICENTER": 159.4064, "MEAN_ANOMALY": 201.0816, "EPHEMERIS_TYPE": 0, "CLASSIFICATION_TYPE": "U", "NORAD_CAT_ID": 37108, "ELEMENT_SET_NO": 999, "REV_AT_EPOCH": 85492, "BSTAR": 0.0023072294, "MEAN_MOTION_DOT": 7.822e-05, "MEAN_MOTION_DDOT": 0}, "tle": {"line1": "1 37108U 93036BGE 25345.70792160  .00007822  00000+0  23072-2 0  9995", "line2": "2 37108  74.0445  82.4721 0091406 159.4064 201.0816 14.41286837854928"}}, "geometry": {"type": "Point", "coordinates": [59.70885839513825, -52.18078877487955]}}, {"type": "Feature", "properties": {"norad_id": 37126, "name": "COSMOS 2251 DEB", "group": "cosmos-2251-debris", "lat": 24.978522955223088, "lon": 167.64629435353012, "alt_km": 633.7635542971193, "timestamp": "2025-12-12T07:43:20.913425+00:00", "meta": {"OBJECT_NAME": "COSMOS 2251 DEB", "OBJECT_ID": "1993-036BGY", "EPOCH": "2025-12-10T07:44:48.551424", "MEAN_MOTION": 14.73059683, "ECCENTRICITY": 0.0123308, "INCLINATION": 73.9536, "RA_OF_ASC_NODE": 359.2652, "ARG_OF_PERICENTER": 237.9672, "MEAN_ANOMALY": 120.9475, "EPHEMERIS_TYPE": 0, "CLASSIFICATION_TYPE": "U", "NORAD_CAT_ID": 37126, "ELEMENT_SET_NO": 999, "REV_AT_EPOCH": 8063, "BSTAR": 0.00038210319, "MEAN_MOTION_DOT": 2.735e-05, "MEAN_MOTION_DDOT": 0}, "tle": {"line1": "1 37126U 93036BGY 25344.32278416  .00002735  00000+0  38210-3 0  9994", "line2": "2 37126  73.9536 359.2652 0123308 237.9672 120.9475 14.73059683 80630"}}, "geometry": {"type": "Point", "coordinates": [167.64629435353012, 24.978522955223088]}}, {"type": "Feature", "properties": {"norad_id": 37132, "name": "COSMOS 2251 DEB", "group": "cosmos-2251-debris", "lat": -20.849132119061192, "lon": 61.13975066232615, "alt_km": 668.5751806376866, "timestamp": "2025-12-12T07:43:20.913435+00:00", "meta": {"OBJECT_NAME": "COSMOS 2251 DEB", "OBJECT_ID": "1993-036BHE", "EPOCH": "2025-12-07T11:27:27.762624", "MEAN_MOTION": 14.77705967, "ECCENTRICITY": 0.0039737, "INCLINATION": 74.0029, "RA_OF_ASC_NODE": 244.3909, "ARG_OF_PERICENTER": 41.7313, "MEAN_ANOMALY": 318.688, "EPHEMERIS_TYPE": 0, "CLASSIFICATION_TYPE": "U", "NORAD_CAT_ID": 37132, "ELEMENT_SET_NO": 999, "REV_AT_EPOCH": 62338, "BSTAR": 0.0017835716, "MEAN_MOTION_DOT": 0.00012942, "MEAN_MOTION_DDOT": 0}, "tle": {"line1": "1 37132U 93036BHE 25341.47740466  .00012942  00000+0  17836-2 0  9994", "line2": "2 37132  74.0029 244.3909 0039737  41.7313 318.6880 14.77705967623388"}}, "geometry": {"type": "Point", "coordinates": [61.13975066232615, -20.849132119061192]}}, {"type": "Feature", "properties": {"norad_id": 37270, "name": "COSMOS 2251 DEB", "group": "cosmos-2251-debris", "lat": 5.3990825069879875, "lon": 155.0100955165472, "alt_km": 1332.2970898160502, "timestamp": "2025-12-12T07:43:20.913446+00:00", "meta": {"OBJECT_NAME": "COSMOS 2251 DEB", "OBJECT_ID": "1993-036BHJ", "EPOCH": "2025-12-11T23:47:57.410016", "MEAN_MOTION": 13.59790931, "ECCENTRICITY": 0.03987886, "INCLINATION": 73.9366, "RA_OF_ASC_NODE": 337.1089, "ARG_OF_PERICENTER": 349.077, "MEAN_ANOMALY": 10.1863, "EPHEMERIS_TYPE": 0, "CLASSIFICATION_TYPE": "U", "NORAD_CAT_ID": 37270, "ELEMENT_SET_NO": 999, "REV_AT_EPOCH": 77059, "BSTAR": 0.0068871206, "MEAN_MOTION_DOT": 8.647e-05, "MEAN_MOTION_DDOT": 0}, "tle": {"line1": "1 37270U 93036BHJ 25345.99163669  .00008647  00000+0  68871-2 0  9994", "line2": "2 37270  73.9366 337.1089 0398788 349.0770  10.1863 13.59790931770593"}}, "geometry": {"type": "Point", "coordinates": [155.0100955165472, 5.3990825069879875]}}, {"type": "Feature", "properties": {"norad_id": 37278, "name": "COSMOS 2251 DEB", "group": "cosmos-2251-debris", "lat": 61.81390084409505, "lon": 137.17381297597257, "alt_km": 720.1658074620118, "timestamp": "2025-12-12T07:43:20.913457+00:00", "meta": {"OBJECT_NAME": "COSMOS 2251 DEB", "OBJECT_ID": "1993-036BHS", "EPOCH": "2025-12-04T09:26:36.152736", "MEAN_MOTION": 14.15029915, "ECCENTRICITY": 0.029998, "INCLINATION": 73.7864, "RA_OF_ASC_NODE": 4.3592, "ARG_OF_PERICENTER": 188.2556, "MEAN_ANOMALY": 234.4903, "EPHEMERIS_TYPE": 0, "CLASSIFICATION_TYPE": "U", "NORAD_CAT_ID": 37278, "ELEMENT_SET_NO": 999, "REV_AT_EPOCH": 63711, "BSTAR": 0.0023061, "MEAN_MOTION_DOT": 6.884e-05, "MEAN_MOTION_DDOT": 0}, "tle": {"line1": "1 37278U 93036BHS 25338.39347399  .00006884  00000+0  23061-2 0  9995", "line2": "2 37278  73.7864   4.3592 0299980 188.2556 234.4903 14.15029915637119"}}, "geometry": {"type": "Point", "coordinates": [137.17381297597257, 61.81390084409505]}}]}